STARLINK-32224          
1 60941U 24155T   26068.45128643  .00002371  00000+0  92170-4 0  9997
2 60941  53.1600 130.8257 0001161  71.2422 288.8705 15.30191785 86316
HAWK-11A                
1 62382U 24247F   26068.51231358  .00009457  00000+0  34106-3 0  9991
2 62382  44.9941 114.3328 0005466 327.3713  32.6832 15.28849427 67741
